start=new Date('2022-08-06T00:00:00.000Z').valueOf();
sats=[{"OBJECT_TYPE":"PAYLOAD","PERIAPSIS":"546.490","COUNTRY_CODE":"US","ECCENTRICITY":"0.00010610","MEAN_ANOMALY":"286.5836","MEAN_ELEMENT_THEORY":"SGP4","MEAN_MOTION_DOT":"0.00001718","REV_AT_EPOCH":"10214","MEAN_MOTION":"15.06396456","BSTAR":"0.00013419000000","CLASSIFICATION_TYPE":"U","OBJECT_NAME":"STARLINK-1664","OBJECT_ID":"2020-070X","TLE_LINE2":"2 46553  53.0547 277.3178 0001061  73.5269 286.5836 15.06396456102145","PERIOD":"95.592","DECAY_DATE":null,"SITE":"AFETR","RCS_SIZE":"LARGE","CENTER_NAME":"EARTH","FILE":"3529733","MEAN_MOTION_DDOT":"0.0000000000000","RA_OF_ASC_NODE":"277.3178","INCLINATION":"53.0547","APOAPSIS":"547.959","REF_FRAME":"TEME","SEMIMAJOR_AXIS":"6925.359","EPOCH":"2022-08-05T11:48:40.055328","ARG_OF_PERICENTER":"73.5269","ELEMENT_SET_NO":"999","GP_ID":"209622537","TLE_LINE1":"1 46553U 20070X   22217.49213027  .00001718  00000-0  13419-3 0  9992","EPHEMERIS_TYPE":"0","NORAD_CAT_ID":"46553","LAUNCH_DATE":"2020-10-06","TIME_SYSTEM":"UTC"},{"SITE":"AFETR","DECAY_DATE":null,"OBJECT_NAME":"STARLINK-1671","OBJECT_ID":"2020-070Y","PERIOD":"95.592","TLE_LINE2":"2 46554  53.0553 291.7643 0001206  93.4208 266.6919 15.06396143101957","CLASSIFICATION_TYPE":"U","BSTAR":"0.00004406200000","MEAN_MOTION":"15.06396143","REV_AT_EPOCH":"10195","MEAN_MOTION_DOT":"0.00000375","MEAN_ANOMALY":"266.6919","MEAN_ELEMENT_THEORY":"SGP4","ECCENTRICITY":"0.00012060","COUNTRY_CODE":"US","OBJECT_TYPE":"PAYLOAD","PERIAPSIS":"546.390","TIME_SYSTEM":"UTC","LAUNCH_DATE":"2020-10-06","NORAD_CAT_ID":"46554","EPHEMERIS_TYPE":"0","TLE_LINE1":"1 46554U 20070Y   22217.61053781  .00000375  00000-0  44062-4 0  9993","GP_ID":"209655017","ELEMENT_SET_NO":"999","ARG_OF_PERICENTER":"93.4208","EPOCH":"2022-08-05T14:39:10.466784","SEMIMAJOR_AXIS":"6925.360","REF_FRAME":"TEME","RA_OF_ASC_NODE":"291.7643","MEAN_MOTION_DDOT":"0.0000000000000","APOAPSIS":"548.061","INCLINATION":"53.0553","RCS_SIZE":"LARGE","CENTER_NAME":"EARTH","FILE":"3530042"},{"REF_FRAME":"TEME","SEMIMAJOR_AXIS":"6925.360","EPOCH":"2022-08-05T11:18:08.613792","RCS_SIZE":"LARGE","FILE":"3529990","CENTER_NAME":"EARTH","RA_OF_ASC_NODE":"307.3938","MEAN_MOTION_DDOT":"0.0000000000000","INCLINATION":"53.0551","APOAPSIS":"548.150","TLE_LINE1":"1 46556U 20070AA  22217.47093303 -.00001466  00000-0 -79546-4 0  9992","GP_ID":"209633960","EPHEMERIS_TYPE":"0","LAUNCH_DATE":"2020-10-06","NORAD_CAT_ID":"46556","TIME_SYSTEM":"UTC","ARG_OF_PERICENTER":"80.1340","ELEMENT_SET_NO":"999","MEAN_MOTION_DOT":"-0.00001466","OBJECT_TYPE":"PAYLOAD","PERIAPSIS":"546.301","ECCENTRICITY":"0.00013350","COUNTRY_CODE":"US","MEAN_ANOMALY":"279.9800","MEAN_ELEMENT_THEORY":"SGP4","OBJECT_NAME":"STARLINK-1676","OBJECT_ID":"2020-070AA","TLE_LINE2":"2 46556  53.0551 307.3938 0001335  80.1340 279.9800 15.06396173101747","PERIOD":"95.592","DECAY_DATE":null,"SITE":"AFETR","REV_AT_EPOCH":"10174","MEAN_MOTION":"15.06396173","BSTAR":"-0.00007954600000","CLASSIFICATION_TYPE":"U"},{"REF_FRAME":"TEME","EPOCH":"2022-08-05T13:56:43.272960","SEMIMAJOR_AXIS":"6925.384","CENTER_NAME":"EARTH","FILE":"3530042","RCS_SIZE":"LARGE","APOAPSIS":"548.204","INCLINATION":"53.0546","RA_OF_ASC_NODE":"291.9178","MEAN_MOTION_DDOT":"0.0000000000000","EPHEMERIS_TYPE":"0","TLE_LINE1":"1 46557U 20070AB  22217.58105640 -.00001653  00000-0 -92149-4 0  9995","GP_ID":"209655025","TIME_SYSTEM":"UTC","LAUNCH_DATE":"2020-10-06","NORAD_CAT_ID":"46557","ARG_OF_PERICENTER":"79.8688","ELEMENT_SET_NO":"999","MEAN_MOTION_DOT":"-0.00001653","PERIAPSIS":"546.294","OBJECT_TYPE":"PAYLOAD","MEAN_ANOMALY":"280.2457","MEAN_ELEMENT_THEORY":"SGP4","COUNTRY_CODE":"US","ECCENTRICITY":"0.00013790","PERIOD":"95.593","TLE_LINE2":"2 46557  53.0546 291.9178 0001379  79.8688 280.2457 15.06388590101954","OBJECT_ID":"2020-070AB","OBJECT_NAME":"STARLINK-1679","SITE":"AFETR","DECAY_DATE":null,"REV_AT_EPOCH":"10195","MEAN_MOTION":"15.06388590","CLASSIFICATION_TYPE":"U","BSTAR":"-0.00009214900000"},{"EPHEMERIS_TYPE":"0","TLE_LINE1":"1 46558U 20070AC  22217.72111854  .00000508  00000-0  52999-4 0  9991","GP_ID":"209654776","TIME_SYSTEM":"UTC","LAUNCH_DATE":"2020-10-06","NORAD_CAT_ID":"46558","ARG_OF_PERICENTER":"79.0022","ELEMENT_SET_NO":"999","REF_FRAME":"TEME","EPOCH":"2022-08-05T17:18:24.641856","SEMIMAJOR_AXIS":"6925.371","FILE":"3530042","CENTER_NAME":"EARTH","RCS_SIZE":"LARGE","APOAPSIS":"548.284","INCLINATION":"53.0571","MEAN_MOTION_DDOT":"0.0000000000000","RA_OF_ASC_NODE":"291.2714","PERIOD":"95.593","TLE_LINE2":"2 46558  53.0571 291.2714 0001514  79.0022 281.1137 15.06392806101946","OBJECT_ID":"2020-070AC","OBJECT_NAME":"STARLINK-1680","SITE":"AFETR","DECAY_DATE":null,"REV_AT_EPOCH":"10194","MEAN_MOTION":"15.06392806","CLASSIFICATION_TYPE":"U","BSTAR":"0.00005299900000","MEAN_MOTION_DOT":"0.00000508","PERIAPSIS":"546.187","OBJECT_TYPE":"PAYLOAD","MEAN_ELEMENT_THEORY":"SGP4","MEAN_ANOMALY":"281.1137","ECCENTRICITY":"0.00015140","COUNTRY_CODE":"US"},{"REV_AT_EPOCH":"10216","MEAN_MOTION":"15.06404180","BSTAR":"0.00001082100000","CLASSIFICATION_TYPE":"U","TLE_LINE2":"2 46559  53.0550 276.6235 0001179  75.0028 285.1091 15.06404180102165","PERIOD":"95.592","OBJECT_ID":"2020-070AD","OBJECT_NAME":"STARLINK-1681","SITE":"AFETR","DECAY_DATE":null,"PERIAPSIS":"546.384","OBJECT_TYPE":"PAYLOAD","COUNTRY_CODE":"US","ECCENTRICITY":"0.00011790","MEAN_ELEMENT_THEORY":"SGP4","MEAN_ANOMALY":"285.1091","MEAN_MOTION_DOT":"-0.00000120","ARG_OF_PERICENTER":"75.0028","ELEMENT_SET_NO":"999","GP_ID":"209655517","TLE_LINE1":"1 46559U 20070AD  22217.64229608 -.00000120  00000-0  10821-4 0  9999","EPHEMERIS_TYPE":"0","LAUNCH_DATE":"2020-10-06","NORAD_CAT_ID":"46559","TIME_SYSTEM":"UTC","FILE":"3530042","CENTER_NAME":"EARTH","RCS_SIZE":"LARGE","INCLINATION":"53.0550","APOAPSIS":"548.017","MEAN_MOTION_DDOT":"0.0000000000000","RA_OF_ASC_NODE":"276.6235","REF_FRAME":"TEME","SEMIMAJOR_AXIS":"6925.336","EPOCH":"2022-08-05T15:24:54.381312"},{"ARG_OF_PERICENTER":"73.4000","ELEMENT_SET_NO":"999","EPHEMERIS_TYPE":"0","GP_ID":"209654275","TLE_LINE1":"1 46560U 20070AE  22217.53681868  .00001075  00000-0  91085-4 0  9999","TIME_SYSTEM":"UTC","NORAD_CAT_ID":"46560","LAUNCH_DATE":"2020-10-06","RCS_SIZE":"LARGE","FILE":"3530042","CENTER_NAME":"EARTH","RA_OF_ASC_NODE":"292.0994","MEAN_MOTION_DDOT":"0.0000000000000","APOAPSIS":"548.097","INCLINATION":"53.0553","REF_FRAME":"TEME","EPOCH":"2022-08-05T12:53:01.133952","SEMIMAJOR_AXIS":"6925.355","MEAN_MOTION":"15.06397978","REV_AT_EPOCH":"10194","CLASSIFICATION_TYPE":"U","BSTAR":"0.00009108500000","OBJECT_NAME":"STARLINK-1706","OBJECT_ID":"2020-070AE","PERIOD":"95.592","TLE_LINE2":"2 46560  53.0553 292.0994 0001267  73.4000 286.7128 15.06397978101943","DECAY_DATE":null,"SITE":"AFETR","OBJECT_TYPE":"PAYLOAD","PERIAPSIS":"546.342","MEAN_ELEMENT_THEORY":"SGP4","MEAN_ANOMALY":"286.7128","ECCENTRICITY":"0.00012670","COUNTRY_CODE":"US","MEAN_MOTION_DOT":"0.00001075"},{"MEAN_ELEMENT_THEORY":"SGP4","MEAN_ANOMALY":"283.5495","COUNTRY_CODE":"US","ECCENTRICITY":"0.00014630","PERIAPSIS":"546.219","OBJECT_TYPE":"PAYLOAD","MEAN_MOTION_DOT":"0.00000469","CLASSIFICATION_TYPE":"U","BSTAR":"0.00005041800000","MEAN_MOTION":"15.06393780","REV_AT_EPOCH":"10195","DECAY_DATE":null,"SITE":"AFETR","PERIOD":"95.593","TLE_LINE2":"2 46561  53.0540 291.7494 0001463  76.5657 283.5495 15.06393780101951","OBJECT_NAME":"STARLINK-1709","OBJECT_ID":"2020-070AF","APOAPSIS":"548.246","INCLINATION":"53.0540","MEAN_MOTION_DDOT":"0.0000000000000","RA_OF_ASC_NODE":"291.7494","CENTER_NAME":"EARTH","FILE":"3530042","RCS_SIZE":"LARGE","EPOCH":"2022-08-05T14:53:44.842560","SEMIMAJOR_AXIS":"6925.368","REF_FRAME":"TEME","ELEMENT_SET_NO":"999","ARG_OF_PERICENTER":"76.5657","TIME_SYSTEM":"UTC","LAUNCH_DATE":"2020-10-06","NORAD_CAT_ID":"46561","EPHEMERIS_TYPE":"0","TLE_LINE1":"1 46561U 20070AF  22217.62065790  .00000469  00000-0  50418-4 0  9991","GP_ID":"209654526"},{"OBJECT_TYPE":"PAYLOAD","PERIAPSIS":"546.423","ECCENTRICITY":"0.00011580","COUNTRY_CODE":"US","MEAN_ANOMALY":"281.4154","MEAN_ELEMENT_THEORY":"SGP4","MEAN_MOTION_DOT":"0.00000538","MEAN_MOTION":"15.06396333","REV_AT_EPOCH":"10202","BSTAR":"0.00005498000000","CLASSIFICATION_TYPE":"U","OBJECT_ID":"2020-070AG","OBJECT_NAME":"STARLINK-1714","TLE_LINE2":"2 46562  53.0536 286.7194 0001158  78.6965 281.4154 15.06396333102029","PERIOD":"95.592","SITE":"AFETR","DECAY_DATE":null,"RCS_SIZE":"LARGE","CENTER_NAME":"EARTH","FILE":"3530042","RA_OF_ASC_NODE":"286.7194","MEAN_MOTION_DDOT":"0.0000000000000","INCLINATION":"53.0536","APOAPSIS":"548.027","REF_FRAME":"TEME","SEMIMAJOR_AXIS":"6925.360","EPOCH":"2022-08-05T14:51:44.739648","ARG_OF_PERICENTER":"78.6965","ELEMENT_SET_NO":"999","TLE_LINE1":"1 46562U 20070AG  22217.61926782  .00000538  00000-0  54980-4 0  9993","GP_ID":"209655276","EPHEMERIS_TYPE":"0","LAUNCH_DATE":"2020-10-06","NORAD_CAT_ID":"46562","TIME_SYSTEM":"UTC"},{"EPOCH":"2022-08-05T12:51:01.627200","SEMIMAJOR_AXIS":"6925.365","REF_FRAME":"TEME","APOAPSIS":"548.255","INCLINATION":"53.0550","RA_OF_ASC_NODE":"287.1244","MEAN_MOTION_DDOT":"0.0000000000000","CENTER_NAME":"EARTH","FILE":"3530042","RCS_SIZE":"LARGE","TIME_SYSTEM":"UTC","LAUNCH_DATE":"2020-10-06","NORAD_CAT_ID":"46563","EPHEMERIS_TYPE":"0","GP_ID":"209655018","TLE_LINE1":"1 46563U 20070AH  22217.53543550  .00001361  00000-0  11024-3 0  9999","ELEMENT_SET_NO":"999","ARG_OF_PERICENTER":"64.4004","MEAN_MOTION_DOT":"0.00001361","MEAN_ELEMENT_THEORY":"SGP4","MEAN_ANOMALY":"295.7138","COUNTRY_CODE":"US","ECCENTRICITY":"0.00014800","PERIAPSIS":"546.206","OBJECT_TYPE":"PAYLOAD","SITE":"AFETR","DECAY_DATE":null,"PERIOD":"95.592","TLE_LINE2":"2 46563  53.0550 287.1244 0001480  64.4004 295.7138 15.06394475102016","OBJECT_ID":"2020-070AH","OBJECT_NAME":"STARLINK-1730","CLASSIFICATION_TYPE":"U","BSTAR":"0.00011024000000","MEAN_MOTION":"15.06394475","REV_AT_EPOCH":"10201"}];
